ONEWEB-0331             
1 49198U 21083N   24174.90725654  .00000007  00000+0 -14214-4 0  9994
2 49198  87.9149 119.6393 0001903  84.2779 275.8570 13.18686302134553
ONEWEB-0333             
1 49199U 21083P   24174.84390940 -.00000097  00000+0 -30180-3 0  9993
2 49199  87.8937 104.4346 0002203  77.8406 282.2970 13.13468042135828
ONEWEB-0334             
1 49200U 21083Q   24174.72454270  .00000060  00000+0  11498-3 0  9999
2 49200  87.9204  58.6190 0002690  81.9499 278.1940 13.20772976141161
ONEWEB-0335             
1 49201U 21083R   24174.83915810  .00000069  00000+0  15499-3 0  9998
2 49201  87.8946 104.4256 0002174  82.0214 278.1161 13.13474995137129
ONEWEB-0336             
1 49202U 21083S   24174.88518326  .00000212  00000+0  54582-3 0  9991
2 49202  87.8937 104.4112 0002152  81.7849 278.3525 13.13470882135830
ONEWEB-0337             
1 49203U 21083T   24174.89456866  .00000005  00000+0 -21433-4 0  9994
2 49203  87.8937 104.4077 0001922  78.5456 281.5889 13.13470734135838
ONEWEB-0338             
1 49204U 21083U   24175.18537991 -.00000139  00000+0 -37400-3 0  9996
2 49204  87.9209  58.5108 0002213  73.4048 286.7328 13.20773474142547
ONEWEB-0339             
1 49205U 21083V   24175.28670207 -.00000186  00000+0 -54475-3 0  9999
2 49205  87.8935 104.3246 0001949  75.0654 285.0690 13.13470956137169
